NORAD_CAT_ID,OBJECT_NAME,OBJECT_TYPE,EPOCH,MEAN_MOTION,ECCENTRICITY,INCLINATION,RA_OF_ASC_NODE,ARG_OF_PERICENTER,MEAN_ANOMALY,BSTAR,MEAN_MOTION_DOT,MEAN_MOTION_DDOT,TLE_LINE0,TLE_LINE1,TLE_LINE2,SEMIMAJOR_AXIS,PERIOD,APOGEE,PERIGEE,DECAYED
53723.0,STARLINK-4705,PAYLOAD,2022-11-10 14:00:01,15.168653,0.0001858,53.2165,308.9432,33.7461,329.4463,-0.066848,-0.01221017,0.0,0 STARLINK-4705,1 53723U 22107Z   22314.58334491 -.01221017  00000-0 -66848-1 0  9990,2 53723  53.2165 308.9432 0001858  33.7461 329.4463 15.16865300  1309,6893.458000000001,94.933,516.604,514.043,0.0
53723.0,STARLINK-4705,PAYLOAD,2022-11-10 16:00:00,15.16613073,0.0001981,53.2171,308.5641,35.7735,62.7049,-0.063349,-0.01154343,0.0,0 STARLINK-4705,1 53723U 22107Z   22314.66667824 -.01154343  00000-0 -63349-1 0  9998,2 53723  53.2171 308.5641 0001981  35.7735  62.7049 15.16613073 10526,6894.223000000001,94.948,517.453,514.722,0.0
53723.0,STARLINK-4705,PAYLOAD,2022-11-10 22:00:00,15.16001246,0.0001821,53.2167,307.4278,33.8045,350.0917,-0.064272,-0.01151024,0.0,0 STARLINK-4705,1 53723U 22107Z   22314.91667824 -.01151024  00000-0 -64272-1 0  9995,2 53723  53.2167 307.4278 0001821  33.8045 350.0917 15.16001246  1307,6896.078,94.987,519.198,516.687,0.0
53723.0,STARLINK-4705,PAYLOAD,2022-11-11 14:00:01,15.14257277,0.0002903,53.2166,304.4067,291.4486,130.9283,-0.057557,-0.00980785,0.0,0 STARLINK-4705,1 53723U 22107Z   22315.58334491 -.00980785  00000-0 -57557-1 0  9991,2 53723  53.2166 304.4067 0002903 291.4486 130.9283 15.14257277 10667,6901.371,95.096,525.24,521.2330000000002,0.0
53723.0,STARLINK-4705,PAYLOAD,2022-11-11 22:00:00,15.13608442,0.0001959,53.2169,302.8973,31.6844,48.3575,-0.0731909999999999,-0.01218485,0.0,0 STARLINK-4705,1 53723U 22107Z   22315.91667824 -.01218485  00000-0 -73191-1 0  9991,2 53723  53.2169 302.8973 0001959  31.6844  48.3575 15.13608442  1300,6903.343000000003,95.137,526.561,523.856,0.0
53723.0,STARLINK-4705,PAYLOAD,2022-11-12 08:00:01,15.12540523,0.0001909,53.2173,301.0169,44.7915,146.0795,-0.070656,-0.01147346,0.0,0 STARLINK-4705,1 53723U 22107Z   22316.33334491 -.01147346  00000-0 -70656-1 0  9999,2 53723  53.2173 301.0169 0001909  44.7915 146.0795 15.12540523 10777,6906.592,95.204,529.776,527.139,0.0
53723.0,STARLINK-4705,PAYLOAD,2022-11-12 14:00:01,15.11942113,0.000197,53.2169,299.8878,35.3393,77.2775,-0.073042,-0.01164862,0.0,0 STARLINK-4705,1 53723U 22107Z   22316.58334491 -.01164862  00000-0 -73042-1 0  9990,2 53723  53.2169 299.8878 0001970  35.3393  77.2775 15.11942113  1309,6908.415,95.242,531.641,528.919,0.0
53723.0,STARLINK-4705,PAYLOAD,2022-11-12 22:00:00,15.11194406,0.000496,53.2169,298.3837,275.4859,211.9082,-0.080634,-0.01252139,0.0,0 STARLINK-4705,1 53723U 22107Z   22316.91667824 -.01252139  00000-0 -80634-1 0  9996,2 53723  53.2169 298.3837 0004960 275.4859 211.9082 15.11194406 10867,6910.693,95.289,535.986,529.131,0.0
53723.0,STARLINK-4705,PAYLOAD,2022-11-13 06:00:02,15.10349255,0.0001641,53.2172,296.8847,47.5955,93.7129,-0.079947,-0.01215002,0.0,0 STARLINK-4705,1 53723U 22107Z   22317.25002315 -.01215002  00000-0 -79947-1 0  9995,2 53723  53.2172 296.8847 0001641  47.5955  93.7129 15.10349255 10910,6913.271,95.342,536.271,534.002,0.0
53723.0,STARLINK-4705,PAYLOAD,2022-11-13 14:00:01,15.09377944,0.0001764999999999,53.2167,295.3853,51.9127,102.2165,-0.042559,-0.0064473,0.0,0 STARLINK-4705,1 53723U 22107Z   22317.58334491 -.00644730  00000-0 -42559-1 0  9996,2 53723  53.2167 295.3853 0001765  51.9127 102.2165 15.09377944 10967,6916.236999999999,95.404,539.322,536.881,0.0
53723.0,STARLINK-4705,PAYLOAD,2022-11-13 22:00:00,15.08889434,0.0001575999999999,53.2158,293.8846,52.1897,113.8223,-0.002187,-0.00034973,0.0,0 STARLINK-4705,1 53723U 22107Z   22317.91667824 -.00034973  00000-0 -21870-2 0  9998,2 53723  53.2158 293.8846 0001576  52.1897 113.8223 15.08889434  1301,6917.729,95.434,540.685,538.504,0.0
53723.0,STARLINK-4705,PAYLOAD,2022-11-14 14:00:01,15.08838764,0.000171,53.217,290.8956,46.4343,142.8479,-0.00023067,-3.957e-05,0.0,0 STARLINK-4705,1 53723U 22107Z   22318.58334491 -.00003957  00000-0 -23067-3 0  9992,2 53723  53.2170 290.8956 0001710  46.4343 142.8479 15.08838764  1301,6917.884,95.438,540.932,538.566,0.0
53723.0,STARLINK-4705,PAYLOAD,2022-11-14 22:00:00,15.08859116,0.000152,53.2157,289.3948,53.5167,147.4162,-0.0037368,-0.00059301,0.0,0 STARLINK-4705,1 53723U 22107Z   22318.91667824 -.00059301  00000-0 -37368-2 0  9990,2 53723  53.2157 289.3948 0001520  53.5167 147.4162 15.08859116  1306,6917.821999999999,95.436,540.738,538.635,0.0
53723.0,STARLINK-4705,PAYLOAD,2022-11-15 00:00:02,15.0885293,0.0001492,53.2159,289.0213,51.7085,242.1895,-0.0044071999999999,-0.00069774,0.0,0 STARLINK-4705,1 53723U 22107Z   22319.00002315 -.00069774  00000-0 -44072-2 0  9994,2 53723  53.2159 289.0213 0001492  51.7085 242.1895 15.08852930 11176,6917.840999999999,95.437,540.738,538.674,0.0
53723.0,STARLINK-4705,PAYLOAD,2022-11-15 14:00:01,15.08820618,0.0001477,53.2152,286.4027,42.4309,181.6565,-0.0014844,-0.00023822,0.0,0 STARLINK-4705,1 53723U 22107Z   22319.58334491 -.00023822  00000-0 -14844-2 0  9998,2 53723  53.2152 286.4027 0001477  42.4309 181.6565 15.08820618  1305,6917.94,95.439,540.826,538.783,0.0
53723.0,STARLINK-4705,PAYLOAD,2022-11-15 16:00:00,15.08805557,0.0001426999999999,53.2153,286.0282,44.5866,272.3958,0.00049571,7.603e-05,0.0,0 STARLINK-4705,1 53723U 22107Z   22319.66667824  .00007603  00000-0  49571-3 0  9999,2 53723  53.2153 286.0282 0001427  44.5866 272.3958 15.08805557 11277,6917.986,95.44,540.8380000000002,538.863,0.0
53723.0,STARLINK-4705,PAYLOAD,2022-11-15 22:00:00,15.08814398,0.0001393,53.2153,284.9058,50.2276,185.4186,0.0015618,0.00024638,0.0,0 STARLINK-4705,1 53723U 22107Z   22319.91667824  .00024638  00000-0  15618-2 0  9998,2 53723  53.2153 284.9058 0001393  50.2276 185.4186 15.08814398  1309,6917.959,95.439,540.7869999999998,538.86,0.0
53723.0,STARLINK-4705,PAYLOAD,2022-11-16 14:00:01,15.08820227,0.0001568,53.2159,281.9155,42.9387,215.9267,0.004218,0.00067448,0.0,0 STARLINK-4705,1 53723U 22107Z   22320.58335648  .00067448  00000-0  42180-2 0  9999,2 53723  53.2159 281.9155 0001568  42.9387 215.9267 15.08820227 11415,6917.941,95.439,540.891,538.721,0.0
53723.0,STARLINK-4705,PAYLOAD,2022-11-16 22:00:08,15.08901331,0.0001538,53.2168,280.4191,47.0246,223.8099,-0.0060383,-0.00095278,0.0,0 STARLINK-4705,1 53723U 22107Z   22320.91675926 -.00095278  00000-0 -60383-2 0  9991,2 53723  53.2168 280.4191 0001538  47.0246 223.8099 15.08901331  1300,6917.693,95.434,540.622,538.494,0.0
53723.0,STARLINK-4705,PAYLOAD,2022-11-17 06:00:00,15.08857516,0.0001681,53.2148,278.9227,47.5026,234.517,-0.0011326,-0.00018277,0.0,0 STARLINK-4705,1 53723U 22107Z   22321.25001157 -.00018277  00000-0 -11326-2 0  9995,2 53723  53.2148 278.9227 0001681  47.5026 234.5170 15.08857516 11518,6917.8269999999975,95.436,540.855,538.529,0.0
53723.0,STARLINK-4705,PAYLOAD,2022-11-17 14:00:01,15.08860121,0.0001584,53.2141,277.4243,50.3373,243.2797,-0.0025355,-0.00040437,0.0,0 STARLINK-4705,1 53723U 22107Z   22321.58334491 -.00040437  00000-0 -25355-2 0  9991,2 53723  53.2141 277.4243 0001584  50.3373 243.2797 15.08860121  1306,6917.819,95.436,540.78,538.5880000000002,0.0
53723.0,STARLINK-4705,PAYLOAD,2022-11-17 22:00:00,15.08822378,0.0001649,53.2164,275.9297,51.7082,253.5101,0.00097954,0.00015328,0.0,0 STARLINK-4705,1 53723U 22107Z   22321.91667824  .00015328  00000-0  97954-3 0  9991,2 53723  53.2164 275.9297 0001649  51.7082 253.5101 15.08822378  1302,6917.934,95.439,540.94,538.658,0.0
53723.0,STARLINK-4705,PAYLOAD,2022-11-18 14:00:01,15.08844622,0.0001591,53.2138,272.9347,49.778,278.6461,-0.00068684,-0.00011204,0.0,0 STARLINK-4705,1 53723U 22107Z   22322.58334491 -.00011204  00000-0 -68684-3 0  9995,2 53723  53.2138 272.9347 0001591  49.7780 278.6461 15.08844622 11724,6917.866,95.437,540.832,538.631,0.0
53723.0,STARLINK-4705,PAYLOAD,2022-11-18 22:00:00,15.0885978,0.0001636999999999,53.214,271.4378,55.6913,284.3215,-0.0024167,-0.00038565,0.0,0 STARLINK-4705,1 53723U 22107Z   22322.91667824 -.00038565  00000-0 -24167-2 0  9997,2 53723  53.2140 271.4378 0001637  55.6913 284.3215 15.08859780  1305,6917.82,95.436,540.817,538.552,0.0
53723.0,STARLINK-4705,PAYLOAD,2022-11-19 14:00:01,15.0884824,0.0001706,53.214,268.4449,51.6537,311.5517,-0.002765,-0.00044035,0.0,0 STARLINK-4705,1 53723U 22107Z   22323.58334491 -.00044035  00000-0 -27650-2 0  9991,2 53723  53.2140 268.4449 0001706  51.6537 311.5517 15.08848240  1302,6917.855,95.437,540.9,538.54,0.0
53723.0,STARLINK-4705,PAYLOAD,2022-11-19 22:00:00,15.08834807,0.0001684,53.2143,266.9483,54.3399,320.4452,0.00013341,1.836e-05,0.0,0 STARLINK-4705,1 53723U 22107Z   22323.91667824  .00001836  00000-0  13341-3 0  9990,2 53723  53.2143 266.9483 0001684  54.3399 320.4452 15.08834807  1308,6917.896,95.438,540.9259999999998,538.596,0.0
53723.0,STARLINK-4705,PAYLOAD,2022-11-20 14:00:01,15.08825212,0.0001661,53.2146,263.9553,49.8037,348.1665,-0.0003619,-6.041e-05,0.0,0 STARLINK-4705,1 53723U 22107Z   22324.58334491 -.00006041  00000-0 -36190-3 0  9997,2 53723  53.2146 263.9553 0001661  49.8037 348.1665 15.08825212  1302,6917.926,95.438,540.94,538.6419999999998,0.0
53723.0,STARLINK-4705,PAYLOAD,2022-11-20 22:00:00,15.08842956,0.0001685,53.2149,262.4589,52.6901,356.8494,-0.00021211,-3.663e-05,0.0,0 STARLINK-4705,1 53723U 22107Z   22324.91667824 -.00003663  00000-0 -21211-3 0  9998,2 53723  53.2149 262.4589 0001685  52.6901 356.8494 15.08842956  1306,6917.871,95.437,540.9019999999998,538.571,0.0
53723.0,STARLINK-4705,PAYLOAD,2022-11-21 08:00:01,15.08841513,0.0001833,53.2148,260.5895,44.8865,109.1414,0.00017442,2.489e-05,0.0,0 STARLINK-4705,1 53723U 22107Z   22325.33334491  .00002489  00000-0  17442-3 0  9990,2 53723  53.2148 260.5895 0001833  44.8865 109.1414 15.08841513 12133,6917.876,95.437,541.009,538.4730000000002,0.0
